IUS R/B(2)              
1 24740U 97008D   26114.94734702 -.00000203  00000+0  00000+0 0  9995
2 24740  14.6137   4.3755 0023928 196.7585 163.1227  0.99504123 25260
COSMOS 2340             
1 24761U 97015A   26115.09789039  .00000835  00000+0  00000+0 0  9996
2 24761  65.3310 154.1458 6390533 152.8926 264.1994  2.00808854212779
SL-6 R/B(2)             
1 24764U 97015D   26112.36645541 -.00000173  00000+0  00000+0 0  9991
2 24764  66.5331  79.7469 6009614 134.6732 293.8030  2.03168472215391
THAICOM 3               
1 24768U 97016A   26115.66219306 -.00000192  00000+0  00000+0 0  9999
2 24768  12.9464  25.5683 0090405  47.5865 138.8436  0.98753065105425
GOES 10                 
1 24786U 97019A   26115.34925831  .00000038  00000+0  00000+0 0  9992
2 24786  13.0667  21.4782 0030109 239.7367 319.1639  0.99121972105543
DFH 3-2                 
1 24798U 97021A   26115.59197265 -.00000378  00000+0  00000+0 0  9995
2 24798  13.4626  14.1973 0005972  89.5464  88.3795  1.00251857105991
COSMOS 2342             
1 24800U 97022A   26115.77353286 -.00000744  00000+0  00000+0 0  9994
2 24800  67.5712 252.6138 6541012 128.6979 310.2861  1.99544337211361
SL-6 R/B(2)             
1 24803U 97022D   26110.84605434 -.00000182  00000+0  00000+0 0  9991
2 24803  68.7574 298.9104 6051567  68.3429 343.8080  2.04229310215794
DELTA 2 R/B(2)          
1 24810U 97025C   26115.79681235 -.00000253  00000+0  00000+0 0  9993
2 24810  19.0822 211.2479 6929375 161.4738 270.9886  2.16110307228515
SL-12 R/B(2)            
1 24815U 97026D   26115.79257317 -.00000129  00000+0  00000+0 0  9991
2 24815  19.2102  14.9154 5348352  68.5971 354.7023  1.89869936200552
INMARSAT 3-F4           
1 24819U 97027A   26115.53303906 -.00000055  00000+0  00000+0 0  9992
2 24819  11.4318  38.1630 0009585  42.4177 153.2484  0.99501766105531
INSAT-2D                
1 24820U 97027B   26115.68567983 -.00000235  00000+0  00000+0 0  9997
2 24820  12.7248 345.9213 0335322 127.5901 228.7621  1.04792449 48945
PAS 6                   
1 24891U 97040A   26115.78239076 -.00000196  00000+0  00000+0 0  9996
2 24891   8.9567 328.7362 0681036 252.8058 319.2188  0.93697922 76413
COSMOS 2345             
1 24894U 97041A   26115.39021161 -.00000009  00000+0  00000+0 0  9994
2 24894  14.4000 358.1680 0164988 299.0024 245.2555  1.00327865105120
SL-12 R/B(2)            
1 24897U 97041D   26114.99109991 -.00000307  00000+0  00000+0 0  9991
2 24897  14.5100 358.5393 0358157 300.6002 246.3885  1.00014373104829
SL-12 R/B(2)            
1 24919U 97046D   26115.59627874 -.00000037  00000+0  00000+0 0  9993
2 24919  12.9469 121.9635 4810660   1.2190 232.5273  1.79817993188198
AMC-3                   
1 24936U 97050A   26115.83797920 -.00000271  00000+0  00000+0 0  9994
2 24936   8.0204  64.6743 0003063 318.6000  60.2457  1.00271597 51912
