[{"OBJECT_NAME":"IUS R/B(2)","OBJECT_ID":"1997-008D","EPOCH":"2026-04-24T22:44:10.782528","MEAN_MOTION":0.99504123,"ECCENTRICITY":0.00239282,"INCLINATION":14.6137,"RA_OF_ASC_NODE":4.3755,"ARG_OF_PERICENTER":196.7585,"MEAN_ANOMALY":163.1227,"EPHEMERIS_TYPE":0,"CLASSIFICATION_TYPE":"U","NORAD_CAT_ID":24740,"ELEMENT_SET_NO":999,"REV_AT_EPOCH":2526,"BSTAR":0,"MEAN_MOTION_DOT":-2.03e-6,"MEAN_MOTION_DDOT":0},{"OBJECT_NAME":"COSMOS 2340","OBJECT_ID":"1997-015A","EPOCH":"2026-04-25T02:20:57.729696","MEAN_MOTION":2.00808854,"ECCENTRICITY":0.63905339,"INCLINATION":65.331,"RA_OF_ASC_NODE":154.1458,"ARG_OF_PERICENTER":152.8926,"MEAN_ANOMALY":264.1994,"EPHEMERIS_TYPE":0,"CLASSIFICATION_TYPE":"U","NORAD_CAT_ID":24761,"ELEMENT_SET_NO":999,"REV_AT_EPOCH":21277,"BSTAR":0,"MEAN_MOTION_DOT":8.35e-6,"MEAN_MOTION_DDOT":0},{"OBJECT_NAME":"SL-6 R/B(2)","OBJECT_ID":"1997-015D","EPOCH":"2026-04-22T08:47:41.747424","MEAN_MOTION":2.03168472,"ECCENTRICITY":0.60096141,"INCLINATION":66.5331,"RA_OF_ASC_NODE":79.7469,"ARG_OF_PERICENTER":134.6732,"MEAN_ANOMALY":293.803,"EPHEMERIS_TYPE":0,"CLASSIFICATION_TYPE":"U","NORAD_CAT_ID":24764,"ELEMENT_SET_NO":999,"REV_AT_EPOCH":21539,"BSTAR":0,"MEAN_MOTION_DOT":-1.73e-6,"MEAN_MOTION_DDOT":0},{"OBJECT_NAME":"THAICOM 3","OBJECT_ID":"1997-016A","EPOCH":"2026-04-25T15:53:33.480384","MEAN_MOTION":0.98753065,"ECCENTRICITY":0.00904053,"INCLINATION":12.9464,"RA_OF_ASC_NODE":25.5683,"ARG_OF_PERICENTER":47.5865,"MEAN_ANOMALY":138.8436,"EPHEMERIS_TYPE":0,"CLASSIFICATION_TYPE":"U","NORAD_CAT_ID":24768,"ELEMENT_SET_NO":999,"REV_AT_EPOCH":10542,"BSTAR":0,"MEAN_MOTION_DOT":-1.92e-6,"MEAN_MOTION_DDOT":0},{"OBJECT_NAME":"GOES 10","OBJECT_ID":"1997-019A","EPOCH":"2026-04-25T08:22:55.917984","MEAN_MOTION":0.99121972,"ECCENTRICITY":0.00301093,"INCLINATION":13.0667,"RA_OF_ASC_NODE":21.4782,"ARG_OF_PERICENTER":239.7367,"MEAN_ANOMALY":319.1639,"EPHEMERIS_TYPE":0,"CLASSIFICATION_TYPE":"U","NORAD_CAT_ID":24786,"ELEMENT_SET_NO":999,"REV_AT_EPOCH":10554,"BSTAR":0,"MEAN_MOTION_DOT":3.8e-7,"MEAN_MOTION_DDOT":0},{"OBJECT_NAME":"DFH 3-2","OBJECT_ID":"1997-021A","EPOCH":"2026-04-25T14:12:26.436960","MEAN_MOTION":1.00251857,"ECCENTRICITY":0.0005972,"INCLINATION":13.4626,"RA_OF_ASC_NODE":14.1973,"ARG_OF_PERICENTER":89.5464,"MEAN_ANOMALY":88.3795,"EPHEMERIS_TYPE":0,"CLASSIFICATION_TYPE":"U","NORAD_CAT_ID":24798,"ELEMENT_SET_NO":999,"REV_AT_EPOCH":10599,"BSTAR":0,"MEAN_MOTION_DOT":-3.78e-6,"MEAN_MOTION_DDOT":0},{"OBJECT_NAME":"COSMOS 2342","OBJECT_ID":"1997-022A","EPOCH":"2026-04-25T18:33:53.239104","MEAN_MOTION":1.99544337,"ECCENTRICITY":0.6541012,"INCLINATION":67.5712,"RA_OF_ASC_NODE":252.6138,"ARG_OF_PERICENTER":128.6979,"MEAN_ANOMALY":310.2861,"EPHEMERIS_TYPE":0,"CLASSIFICATION_TYPE":"U","NORAD_CAT_ID":24800,"ELEMENT_SET_NO":999,"REV_AT_EPOCH":21136,"BSTAR":0,"MEAN_MOTION_DOT":-7.44e-6,"MEAN_MOTION_DDOT":0},{"OBJECT_NAME":"SL-6 R/B(2)","OBJECT_ID":"1997-022D","EPOCH":"2026-04-20T20:18:19.094976","MEAN_MOTION":2.0422931,"ECCENTRICITY":0.60515674,"INCLINATION":68.7574,"RA_OF_ASC_NODE":298.9104,"ARG_OF_PERICENTER":68.3429,"MEAN_ANOMALY":343.808,"EPHEMERIS_TYPE":0,"CLASSIFICATION_TYPE":"U","NORAD_CAT_ID":24803,"ELEMENT_SET_NO":999,"REV_AT_EPOCH":21579,"BSTAR":0,"MEAN_MOTION_DOT":-1.82e-6,"MEAN_MOTION_DDOT":0},{"OBJECT_NAME":"DELTA 2 R/B(2)","OBJECT_ID":"1997-025C","EPOCH":"2026-04-25T19:07:24.587040","MEAN_MOTION":2.16110307,"ECCENTRICITY":0.69293758,"INCLINATION":19.0822,"RA_OF_ASC_NODE":211.2479,"ARG_OF_PERICENTER":161.4738,"MEAN_ANOMALY":270.9886,"EPHEMERIS_TYPE":0,"CLASSIFICATION_TYPE":"U","NORAD_CAT_ID":24810,"ELEMENT_SET_NO":999,"REV_AT_EPOCH":22851,"BSTAR":0,"MEAN_MOTION_DOT":-2.53e-6,"MEAN_MOTION_DDOT":0},{"OBJECT_NAME":"SL-12 R/B(2)","OBJECT_ID":"1997-026D","EPOCH":"2026-04-25T19:01:18.321888","MEAN_MOTION":1.89869936,"ECCENTRICITY":0.53483525,"INCLINATION":19.2102,"RA_OF_ASC_NODE":14.9154,"ARG_OF_PERICENTER":68.5971,"MEAN_ANOMALY":354.7023,"EPHEMERIS_TYPE":0,"CLASSIFICATION_TYPE":"U","NORAD_CAT_ID":24815,"ELEMENT_SET_NO":999,"REV_AT_EPOCH":20055,"BSTAR":0,"MEAN_MOTION_DOT":-1.29e-6,"MEAN_MOTION_DDOT":0},{"OBJECT_NAME":"INMARSAT 3-F4","OBJECT_ID":"1997-027A","EPOCH":"2026-04-25T12:47:34.574784","MEAN_MOTION":0.99501766,"ECCENTRICITY":0.00095857,"INCLINATION":11.4318,"RA_OF_ASC_NODE":38.163,"ARG_OF_PERICENTER":42.4177,"MEAN_ANOMALY":153.2484,"EPHEMERIS_TYPE":0,"CLASSIFICATION_TYPE":"U","NORAD_CAT_ID":24819,"ELEMENT_SET_NO":999,"REV_AT_EPOCH":10553,"BSTAR":0,"MEAN_MOTION_DOT":-5.5e-7,"MEAN_MOTION_DDOT":0},{"OBJECT_NAME":"INSAT-2D","OBJECT_ID":"1997-027B","EPOCH":"2026-04-25T16:27:22.737312","MEAN_MOTION":1.04792449,"ECCENTRICITY":0.03353225,"INCLINATION":12.7248,"RA_OF_ASC_NODE":345.9213,"ARG_OF_PERICENTER":127.5901,"MEAN_ANOMALY":228.7621,"EPHEMERIS_TYPE":0,"CLASSIFICATION_TYPE":"U","NORAD_CAT_ID":24820,"ELEMENT_SET_NO":999,"REV_AT_EPOCH":4894,"BSTAR":0,"MEAN_MOTION_DOT":-2.35e-6,"MEAN_MOTION_DDOT":0},{"OBJECT_NAME":"PAS 6","OBJECT_ID":"1997-040A","EPOCH":"2026-04-25T18:46:38.561664","MEAN_MOTION":0.93697922,"ECCENTRICITY":0.06810361,"INCLINATION":8.9567,"RA_OF_ASC_NODE":328.7362,"ARG_OF_PERICENTER":252.8058,"MEAN_ANOMALY":319.2188,"EPHEMERIS_TYPE":0,"CLASSIFICATION_TYPE":"U","NORAD_CAT_ID":24891,"ELEMENT_SET_NO":999,"REV_AT_EPOCH":7641,"BSTAR":0,"MEAN_MOTION_DOT":-1.96e-6,"MEAN_MOTION_DDOT":0},{"OBJECT_NAME":"COSMOS 2345","OBJECT_ID":"1997-041A","EPOCH":"2026-04-25T09:21:54.283104","MEAN_MOTION":1.00327865,"ECCENTRICITY":0.01649889,"INCLINATION":14.4,"RA_OF_ASC_NODE":358.168,"ARG_OF_PERICENTER":299.0024,"MEAN_ANOMALY":245.2555,"EPHEMERIS_TYPE":0,"CLASSIFICATION_TYPE":"U","NORAD_CAT_ID":24894,"ELEMENT_SET_NO":999,"REV_AT_EPOCH":10512,"BSTAR":0,"MEAN_MOTION_DOT":-9.0e-8,"MEAN_MOTION_DDOT":0},{"OBJECT_NAME":"SL-12 R/B(2)","OBJECT_ID":"1997-041D","EPOCH":"2026-04-24T23:47:11.032224","MEAN_MOTION":1.00014373,"ECCENTRICITY":0.03581576,"INCLINATION":14.51,"RA_OF_ASC_NODE":358.5393,"ARG_OF_PERICENTER":300.6002,"MEAN_ANOMALY":246.3885,"EPHEMERIS_TYPE":0,"CLASSIFICATION_TYPE":"U","NORAD_CAT_ID":24897,"ELEMENT_SET_NO":999,"REV_AT_EPOCH":10482,"BSTAR":0,"MEAN_MOTION_DOT":-3.07e-6,"MEAN_MOTION_DDOT":0},{"OBJECT_NAME":"SL-12 R/B(2)","OBJECT_ID":"1997-046D","EPOCH":"2026-04-25T14:18:38.483136","MEAN_MOTION":1.79817993,"ECCENTRICITY":0.481066,"INCLINATION":12.9469,"RA_OF_ASC_NODE":121.9635,"ARG_OF_PERICENTER":1.219,"MEAN_ANOMALY":232.5273,"EPHEMERIS_TYPE":0,"CLASSIFICATION_TYPE":"U","NORAD_CAT_ID":24919,"ELEMENT_SET_NO":999,"REV_AT_EPOCH":18819,"BSTAR":0,"MEAN_MOTION_DOT":-3.7e-7,"MEAN_MOTION_DDOT":0},{"OBJECT_NAME":"AMC-3","OBJECT_ID":"1997-050A","EPOCH":"2026-04-25T20:06:41.402880","MEAN_MOTION":1.00271597,"ECCENTRICITY":0.00030637,"INCLINATION":8.0204,"RA_OF_ASC_NODE":64.6743,"ARG_OF_PERICENTER":318.6,"MEAN_ANOMALY":60.2457,"EPHEMERIS_TYPE":0,"CLASSIFICATION_TYPE":"U","NORAD_CAT_ID":24936,"ELEMENT_SET_NO":999,"REV_AT_EPOCH":5191,"BSTAR":0,"MEAN_MOTION_DOT":-2.71e-6,"MEAN_MOTION_DDOT":0}]
